[{"OBJECT_NAME":"LEMUR-2-ANDIS","OBJECT_ID":"2017-042P","EPOCH":"2026-03-09T13:25:33.116448","MEAN_MOTION":15.30557934,"ECCENTRICITY":0.0009101,"INCLINATION":97.3659,"RA_OF_ASC_NODE":249.795,"ARG_OF_PERICENTER":4.3248,"MEAN_ANOMALY":355.807,"EPHEMERIS_TYPE":0,"CLASSIFICATION_TYPE":"U","NORAD_CAT_ID":42838,"ELEMENT_SET_NO":999,"REV_AT_EPOCH":47319,"BSTAR":0.00079875,"MEAN_MOTION_DOT":0.00023598,"MEAN_MOTION_DDOT":0},{"OBJECT_NAME":"STARLINK-30276","OBJECT_ID":"2023-122W","EPOCH":"2026-03-09T22:00:01.999584","MEAN_MOTION":15.26724427,"ECCENTRICITY":0.00014643,"INCLINATION":43.0012,"RA_OF_ASC_NODE":91.0185,"ARG_OF_PERICENTER":257.0044,"MEAN_ANOMALY":113.2017,"EPHEMERIS_TYPE":0,"CLASSIFICATION_TYPE":"U","NORAD_CAT_ID":57652,"ELEMENT_SET_NO":999,"REV_AT_EPOCH":578,"BSTAR":0.0013865429,"MEAN_MOTION_DOT":0.00037102,"MEAN_MOTION_DDOT":0}]
